STARLINK-6277           
1 56399U 23061AB  26196.03850573 -.00000621  00000+0 -13041-4 0  9992
2 56399  43.0044 187.6197 0001603 279.1270  80.9400 15.27577133176350
STARLINK-6267           
1 56400U 23061AC  26196.31163372  .00000968  00000+0  44710-4 0  9999
2 56400  42.9990 186.2262 0001067 297.5672  62.5071 15.27566310176392
STARLINK-6287           
1 56404U 23061AG  26196.00650691  .00031601  00000+0  11596-2 0  9996
2 56404  43.0010 188.2173 0001801 216.0214 144.0516 15.27390331176341
STARLINK-6285           
1 56405U 23061AH  26196.05263936  .00001054  00000+0  47803-4 0  9995
2 56405  43.0015 187.7155 0001488 260.8464  99.2219 15.27585374176351
STARLINK-6283           
1 56406U 23061AJ  26196.34759503 -.00000310  00000+0 -17391-5 0  9994
2 56406  43.0009 186.4767 0000622 233.7212 126.3582 15.27574421176399
STARLINK-6282           
1 56407U 23061AK  26196.00266815 -.00001007  00000+0 -27070-4 0  9995
2 56407  43.0008 188.1958 0001486 283.7178  76.3508 15.27575216176345
STARLINK-6289           
1 56408U 23061AL  26196.35900887 -.00005763  00000+0 -20000-3 0  9996
2 56408  43.0038 185.7000 0002212 285.3203  74.7405 15.27584058176404
STARLINK-6241           
1 56409U 23061AM  26196.33603203 -.00000246  00000+0  56251-6 0  9997
2 56409  43.0001 186.3989 0000906 260.9930  99.0819 15.27572761176397
STARLINK-6281           
1 56410U 23061AN  26196.35258656 -.00000570  00000+0 -11200-4 0  9993
2 56410  43.0021 185.6598 0001105 274.9109  85.1616 15.27575087176401
STARLINK-6279           
1 56411U 23061AP  26196.33988619  .00000212  00000+0  17229-4 0  9999
2 56411  43.0006 186.4246 0000234 290.6088  69.4738 15.27576175176394
STARLINK-6278           
1 56412U 23061AQ  26196.03978535 -.00000406  00000+0 -52092-5 0  9998
2 56412  43.0040 187.6181 0001935 276.5481  83.5150 15.27576212176356
STARLINK-6258           
1 56413U 23061AR  26196.35144610 -.00000278  00000+0 -58184-6 0  9999
2 56413  43.0017 186.5092 0001167 261.8840  98.1879 15.27573772176395
STARLINK-5136           
1 56414U 23061AS  26196.45394672  .00000541  00000+0  29178-4 0  9996
2 56414  43.0016 185.5575 0001110 280.7340  79.3386 15.27578799176414
STARLINK-6260           
1 56416U 23061AU  26196.43562255  .00000190  00000+0  16415-4 0  9990
2 56416  43.0016 178.3831 0001057 269.5800  90.4930 15.27576721176497
STARLINK-6261           
1 56417U 23061AV  26196.30905070  .00000080  00000+0  12433-4 0  9997
2 56417  43.0022 186.1946 0001498 264.2353  95.8328 15.27568028176393
STARLINK-5356           
1 56418U 23061AW  26196.01117878 -.00000628  00000+0 -13315-4 0  9997
2 56418  43.0018 180.3519 0001134 274.3668  85.7055 15.27577554176433
STARLINK-5350           
1 56419U 23061AX  26196.00010429 -.00001003  00000+0 -26926-4 0  9991
2 56419  43.0005 188.1740 0001320 280.1433  79.9270 15.27571414176347
STARLINK-6272           
1 56420U 23061AY  26195.95350595 -.00000127  00000+0  49076-5 0  9994
2 56420  43.0029 180.7853 0001830 293.7195  66.3465 15.27575072176428
STARLINK-6270           
1 56421U 23061AZ  26196.03510129 -.00001093  00000+0 -30214-4 0  9993
2 56421  43.0035 183.9457 0001551 270.2650  89.8024 15.27571997176396
STARLINK-6236           
1 56422U 23061BA  26196.02917013  .00000208  00000+0  17070-4 0  9996
2 56422  43.0001 180.4870 0001190 239.5612 120.5122 15.27575536176436
STARLINK-6239           
1 56423U 23061BB  26196.34967907  .00000100  00000+0  13153-4 0  9998
2 56423  43.0034 178.5976 0001404 269.4206  90.6484 15.27575916176482
STARLINK-6242           
1 56424U 23061BC  26196.42920507  .00000504  00000+0  27838-4 0  9996
2 56424  42.9996 178.3356 0000835 327.6950  32.3850 15.27573885176492
STARLINK-6224           
1 56425U 23061BD  26196.03302719 -.00000001  00000+0  95002-5 0  9995
2 56425  43.0018 180.5174 0001382 267.2485  92.8209 15.27575394176433
STARLINK-5352           
1 56426U 23061BE  26196.63691783  .00007210  00000+0  27123-3 0  9999
2 56426  42.9985 177.2980 0000780   5.1192 354.9667 15.27584093176524
STARLINK-5724           
1 56427U 23061BF  26196.63949120  .00000340  00000+0  21875-4 0  9997
2 56427  43.0012 177.3171 0001102 271.6149  88.4577 15.27566749176529
STARLINK-6238           
1 56428U 23061BG  26196.30228260  .00000076  00000+0  12275-4 0  9997
2 56428  43.0020 179.0937 0001290 263.8455  96.2250 15.27573351176475
STARLINK-6264           
1 56429U 23061BH  26196.63306747 -.00000337  00000+0 -27197-5 0  9993
2 56429  43.0028 177.2757 0001399 258.6719 101.3976 15.27575050176526
STARLINK-5990           
1 56448U 23064A   26196.39710010  .00000587  00000+0  56977-4 0  9994
2 56448  69.9995 182.5281 0003631 264.0182  96.0563 14.98321392174372
STARLINK-5993           
1 56449U 23064B   26196.41781495  .00000316  00000+0  34305-4 0  9994
2 56449  69.9996 182.6000 0003186 265.3483  94.7313 14.98333994174376
STARLINK-5970           
1 56450U 23064C   26196.39292243  .00000262  00000+0  29749-4 0  9997
2 56450  69.9996 182.5133 0003018 269.5353  90.5460 14.98329642174372
