OBJECT_NAME,OBJECT_ID,EPOCH,MEAN_MOTION,ECCENTRICITY,INCLINATION,RA_OF_ASC_NODE,ARG_OF_PERICENTER,MEAN_ANOMALY,EPHEMERIS_TYPE,CLASSIFICATION_TYPE,NORAD_CAT_ID,ELEMENT_SET_NO,REV_AT_EPOCH,BSTAR,MEAN_MOTION_DOT,MEAN_MOTION_DDOT
STARLINK-6277,2023-061AB,2026-07-15T00:55:26.895072,15.27577133,.00016039,43.0044,187.6197,279.1270,80.9400,0,U,56399,999,17635,-.13041074E-4,-.621E-5,0
STARLINK-6267,2023-061AC,2026-07-15T07:28:45.153408,15.27566310,.00010678,42.9990,186.2262,297.5672,62.5071,0,U,56400,999,17639,.4471014E-4,.968E-5,0
STARLINK-6287,2023-061AG,2026-07-15T00:09:22.197024,15.27390331,.0001801,43.0010,188.2173,216.0214,144.0516,0,U,56404,999,17634,.11596031E-2,.31601E-3,0
STARLINK-6285,2023-061AH,2026-07-15T01:15:48.040704,15.27585374,.00014883,43.0015,187.7155,260.8464,99.2219,0,U,56405,999,17635,.47803335E-4,.1054E-4,0
STARLINK-6283,2023-061AJ,2026-07-15T08:20:32.210592,15.27574421,.00006228,43.0009,186.4767,233.7212,126.3582,0,U,56406,999,17639,-.1739085E-5,-.31E-5,0
STARLINK-6282,2023-061AK,2026-07-15T00:03:50.528160,15.27575216,.0001486,43.0008,188.1958,283.7178,76.3508,0,U,56407,999,17634,-.27070067E-4,-.1007E-4,0
STARLINK-6289,2023-061AL,2026-07-15T08:36:58.366368,15.27584058,.00022121,43.0038,185.7000,285.3203,74.7405,0,U,56408,999,17640,-.19999733E-3,-.5763E-4,0
STARLINK-6241,2023-061AM,2026-07-15T08:03:53.167392,15.27572761,.00009068,43.0001,186.3989,260.9930,99.0819,0,U,56409,999,17639,.562514E-6,-.246E-5,0
STARLINK-6281,2023-061AN,2026-07-15T08:27:43.478784,15.27575087,.00011054,43.0021,185.6598,274.9109,85.1616,0,U,56410,999,17640,-.11199771E-4,-.57E-5,0
STARLINK-6279,2023-061AP,2026-07-15T08:09:26.166816,15.27576175,.00002343,43.0006,186.4246,290.6088,69.4738,0,U,56411,999,17639,.17228568E-4,.212E-5,0
STARLINK-6278,2023-061AQ,2026-07-15T00:57:17.454240,15.27576212,.00019357,43.0040,187.6181,276.5481,83.5150,0,U,56412,999,17635,-.5209236E-5,-.406E-5,0
STARLINK-6258,2023-061AR,2026-07-15T08:26:04.943040,15.27573772,.00011677,43.0017,186.5092,261.8840,98.1879,0,U,56413,999,17639,-.581841E-6,-.278E-5,0
STARLINK-5136,2023-061AS,2026-07-15T10:53:40.996608,15.27578799,.000111,43.0016,185.5575,280.7340,79.3386,0,U,56414,999,17641,.29178456E-4,.541E-5,0
STARLINK-6260,2023-061AU,2026-07-15T10:27:17.788320,15.27576721,.00010577,43.0016,178.3831,269.5800,90.4930,0,U,56416,999,17649,.16415065E-4,.19E-5,0
STARLINK-6261,2023-061AV,2026-07-15T07:25:01.980480,15.27568028,.00014987,43.0022,186.1946,264.2353,95.8328,0,U,56417,999,17639,.12433023E-4,.8E-6,0
STARLINK-5356,2023-061AW,2026-07-15T00:16:05.846592,15.27577554,.00011344,43.0018,180.3519,274.3668,85.7055,0,U,56418,999,17643,-.13315032E-4,-.628E-5,0
STARLINK-5350,2023-061AX,2026-07-15T00:00:09.010656,15.27571414,.00013203,43.0005,188.1740,280.1433,79.9270,0,U,56419,999,17634,-.26926244E-4,-.1003E-4,0
STARLINK-6272,2023-061AY,2026-07-14T22:53:02.914080,15.27575072,.00018304,43.0029,180.7853,293.7195,66.3465,0,U,56420,999,17642,.4907558E-5,-.127E-5,0
STARLINK-6270,2023-061AZ,2026-07-15T00:50:32.751456,15.27571997,.00015516,43.0035,183.9457,270.2650,89.8024,0,U,56421,999,17639,-.30214311E-4,-.1093E-4,0
STARLINK-6236,2023-061BA,2026-07-15T00:42:00.299232,15.27575536,.00011901,43.0001,180.4870,239.5612,120.5122,0,U,56422,999,17643,.17069884E-4,.208E-5,0
STARLINK-6239,2023-061BB,2026-07-15T08:23:32.271648,15.27575916,.00014047,43.0034,178.5976,269.4206,90.6484,0,U,56423,999,17648,.13152563E-4,.1E-5,0
STARLINK-6242,2023-061BC,2026-07-15T10:18:03.318048,15.27573885,.00008356,42.9996,178.3356,327.6950,32.3850,0,U,56424,999,17649,.27837885E-4,.504E-5,0
STARLINK-6224,2023-061BD,2026-07-15T00:47:33.549216,15.27575394,.00013825,43.0018,180.5174,267.2485,92.8209,0,U,56425,999,17643,.9500176E-5,-.1E-7,0
STARLINK-5352,2023-061BE,2026-07-15T15:17:09.700512,15.27584093,.00007808,42.9985,177.2980,5.1192,354.9667,0,U,56426,999,17652,.2712299E-3,.721E-4,0
STARLINK-5724,2023-061BF,2026-07-15T15:20:52.039680,15.27566749,.00011022,43.0012,177.3171,271.6149,88.4577,0,U,56427,999,17652,.21875157E-4,.34E-5,0
STARLINK-6238,2023-061BG,2026-07-15T07:15:17.216640,15.27573351,.00012905,43.0020,179.0937,263.8455,96.2250,0,U,56428,999,17647,.12274601E-4,.76E-6,0
STARLINK-6264,2023-061BH,2026-07-15T15:11:37.029408,15.27575050,.00013991,43.0028,177.2757,258.6719,101.3976,0,U,56429,999,17652,-.271968E-5,-.337E-5,0
STARLINK-5990,2023-064A,2026-07-15T09:31:49.448640,14.98321392,.00036315,69.9995,182.5281,264.0182,96.0563,0,U,56448,999,17437,.56976861E-4,.587E-5,0
STARLINK-5993,2023-064B,2026-07-15T10:01:39.211680,14.98333994,.0003186,69.9996,182.6000,265.3483,94.7313,0,U,56449,999,17437,.34305388E-4,.316E-5,0
STARLINK-5970,2023-064C,2026-07-15T09:25:48.497952,14.98329642,.00030182,69.9996,182.5133,269.5353,90.5460,0,U,56450,999,17437,.29749478E-4,.262E-5,0
